{"fetched_at":"2026-07-23T07:05:20.499Z","source":"https://celestrak.org/NORAD/elements/gp.php?GROUP=planet&FORMAT=JSON","constellation":"skysat","records":[{"OBJECT_NAME":"SKYSAT-A","OBJECT_ID":"2013-066C","EPOCH":"2026-07-22T08:58:33.755520","CLASSIFICATION_TYPE":"U","MEAN_MOTION":15.13143261,"ECCENTRICITY":0.00211474,"INCLINATION":97.3797,"RA_OF_ASC_NODE":251.6497,"ARG_OF_PERICENTER":187.9064,"MEAN_ANOMALY":172.1837,"EPHEMERIS_TYPE":0,"NORAD_CAT_ID":39418,"ELEMENT_SET_NO":999,"REV_AT_EPOCH":69380,"BSTAR":0.0001302797,"MEAN_MOTION_DOT":0.00002256,"MEAN_MOTION_DDOT":0},{"OBJECT_NAME":"SKYSAT-B","OBJECT_ID":"2014-037D","EPOCH":"2026-07-21T14:53:10.114944","CLASSIFICATION_TYPE":"U","MEAN_MOTION":14.88102443,"ECCENTRICITY":0.00060203,"INCLINATION":98.3858,"RA_OF_ASC_NODE":163.5543,"ARG_OF_PERICENTER":153.0763,"MEAN_ANOMALY":207.0765,"EPHEMERIS_TYPE":0,"NORAD_CAT_ID":40072,"ELEMENT_SET_NO":999,"REV_AT_EPOCH":65108,"BSTAR":0.00010248307,"MEAN_MOTION_DOT":0.00000881,"MEAN_MOTION_DDOT":0},{"OBJECT_NAME":"SKYSAT-C1","OBJECT_ID":"2016-040C","EPOCH":"2026-07-22T01:21:36.215424","CLASSIFICATION_TYPE":"U","MEAN_MOTION":15.36827669,"ECCENTRICITY":0.00008445,"INCLINATION":96.9555,"RA_OF_ASC_NODE":232.8956,"ARG_OF_PERICENTER":190.2367,"MEAN_ANOMALY":169.8861,"EPHEMERIS_TYPE":0,"NORAD_CAT_ID":41601,"ELEMENT_SET_NO":999,"REV_AT_EPOCH":56322,"BSTAR":0.00025428289,"MEAN_MOTION_DOT":0.00009079,"MEAN_MOTION_DDOT":0},{"OBJECT_NAME":"SKYSAT-C4","OBJECT_ID":"2016-058B","EPOCH":"2026-07-22T20:37:31.988928","CLASSIFICATION_TYPE":"U","MEAN_MOTION":15.49627091,"ECCENTRICITY":0.00035678,"INCLINATION":96.9177,"RA_OF_ASC_NODE":224.1612,"ARG_OF_PERICENTER":108.5272,"MEAN_ANOMALY":251.6368,"EPHEMERIS_TYPE":0,"NORAD_CAT_ID":41771,"ELEMENT_SET_NO":999,"REV_AT_EPOCH":55099,"BSTAR":0.00035289095,"MEAN_MOTION_DOT":0.00019456,"MEAN_MOTION_DDOT":0},{"OBJECT_NAME":"SKYSAT-C5","OBJECT_ID":"2016-058C","EPOCH":"2026-07-22T21:50:11.940288","CLASSIFICATION_TYPE":"U","MEAN_MOTION":15.33795792,"ECCENTRICITY":0.00033726,"INCLINATION":97.0455,"RA_OF_ASC_NODE":242.9394,"ARG_OF_PERICENTER":142.5328,"MEAN_ANOMALY":217.6151,"EPHEMERIS_TYPE":0,"NORAD_CAT_ID":41772,"ELEMENT_SET_NO":999,"REV_AT_EPOCH":54922,"BSTAR":0.00024350262,"MEAN_MOTION_DOT":0.00007886,"MEAN_MOTION_DDOT":0},{"OBJECT_NAME":"SKYSAT-C2","OBJECT_ID":"2016-058D","EPOCH":"2026-07-22T11:39:54.413280","CLASSIFICATION_TYPE":"U","MEAN_MOTION":15.42800155,"ECCENTRICITY":0.00006601,"INCLINATION":97.0165,"RA_OF_ASC_NODE":224.2677,"ARG_OF_PERICENTER":287.0697,"MEAN_ANOMALY":73.0479,"EPHEMERIS_TYPE":0,"NORAD_CAT_ID":41773,"ELEMENT_SET_NO":999,"REV_AT_EPOCH":55049,"BSTAR":0.00028038375,"MEAN_MOTION_DOT":0.00012197,"MEAN_MOTION_DDOT":0},{"OBJECT_NAME":"SKYSAT-C3","OBJECT_ID":"2016-058E","EPOCH":"2026-07-22T01:27:26.898336","CLASSIFICATION_TYPE":"U","MEAN_MOTION":15.53929029,"ECCENTRICITY":0.00028007,"INCLINATION":96.9001,"RA_OF_ASC_NODE":232.5963,"ARG_OF_PERICENTER":124.5445,"MEAN_ANOMALY":235.6075,"EPHEMERIS_TYPE":0,"NORAD_CAT_ID":41774,"ELEMENT_SET_NO":999,"REV_AT_EPOCH":55152,"BSTAR":0.00038776584,"MEAN_MOTION_DOT":0.00024954,"MEAN_MOTION_DDOT":0},{"OBJECT_NAME":"SKYSAT-C11","OBJECT_ID":"2017-068A","EPOCH":"2026-07-22T16:26:34.592640","CLASSIFICATION_TYPE":"U","MEAN_MOTION":15.59645696,"ECCENTRICITY":0.00015064,"INCLINATION":97.4384,"RA_OF_ASC_NODE":354.1178,"ARG_OF_PERICENTER":150.3189,"MEAN_ANOMALY":209.8153,"EPHEMERIS_TYPE":0,"NORAD_CAT_ID":42987,"ELEMENT_SET_NO":999,"REV_AT_EPOCH":48877,"BSTAR":0.00039232622,"MEAN_MOTION_DOT":0.00031225,"MEAN_MOTION_DDOT":0},{"OBJECT_NAME":"SKYSAT-C10","OBJECT_ID":"2017-068B","EPOCH":"2026-07-22T19:43:05.162592","CLASSIFICATION_TYPE":"U","MEAN_MOTION":15.35228657,"ECCENTRICITY":0.00015443,"INCLINATION":97.4541,"RA_OF_ASC_NODE":341.0397,"ARG_OF_PERICENTER":109.9336,"MEAN_ANOMALY":250.2073,"EPHEMERIS_TYPE":0,"NORAD_CAT_ID":42988,"ELEMENT_SET_NO":999,"REV_AT_EPOCH":48782,"BSTAR":0.00032885609,"MEAN_MOTION_DOT":0.0001117,"MEAN_MOTION_DDOT":0},{"OBJECT_NAME":"SKYSAT-C9","OBJECT_ID":"2017-068C","EPOCH":"2026-07-22T08:19:06.958848","CLASSIFICATION_TYPE":"U","MEAN_MOTION":15.42337273,"ECCENTRICITY":0.00080325,"INCLINATION":97.4462,"RA_OF_ASC_NODE":341.836,"ARG_OF_PERICENTER":20.5738,"MEAN_ANOMALY":339.5831,"EPHEMERIS_TYPE":0,"NORAD_CAT_ID":42989,"ELEMENT_SET_NO":999,"REV_AT_EPOCH":48817,"BSTAR":0.00031311584,"MEAN_MOTION_DOT":0.0001343,"MEAN_MOTION_DDOT":0},{"OBJECT_NAME":"SKYSAT-C8","OBJECT_ID":"2017-068D","EPOCH":"2026-07-22T14:35:28.222656","CLASSIFICATION_TYPE":"U","MEAN_MOTION":15.37595654,"ECCENTRICITY":0.00013324,"INCLINATION":97.4558,"RA_OF_ASC_NODE":340.76,"ARG_OF_PERICENTER":107.9214,"MEAN_ANOMALY":252.2176,"EPHEMERIS_TYPE":0,"NORAD_CAT_ID":42990,"ELEMENT_SET_NO":999,"REV_AT_EPOCH":48775,"BSTAR":0.00029579227,"MEAN_MOTION_DOT":0.00010833,"MEAN_MOTION_DDOT":0},{"OBJECT_NAME":"SKYSAT-C7","OBJECT_ID":"2017-068E","EPOCH":"2026-07-22T14:27:52.116192","CLASSIFICATION_TYPE":"U","MEAN_MOTION":15.37543775,"ECCENTRICITY":0.00049952,"INCLINATION":97.4569,"RA_OF_ASC_NODE":341.747,"ARG_OF_PERICENTER":354.8309,"MEAN_ANOMALY":5.2883,"EPHEMERIS_TYPE":0,"NORAD_CAT_ID":42991,"ELEMENT_SET_NO":999,"REV_AT_EPOCH":48781,"BSTAR":0.00029385819,"MEAN_MOTION_DOT":0.00010747,"MEAN_MOTION_DDOT":0},{"OBJECT_NAME":"SKYSAT-C6","OBJECT_ID":"2017-068F","EPOCH":"2026-07-22T19:46:35.605344","CLASSIFICATION_TYPE":"U","MEAN_MOTION":15.34265225,"ECCENTRICITY":0.00048196,"INCLINATION":97.4608,"RA_OF_ASC_NODE":341.7906,"ARG_OF_PERICENTER":69.9095,"MEAN_ANOMALY":290.2666,"EPHEMERIS_TYPE":0,"NORAD_CAT_ID":42992,"ELEMENT_SET_NO":999,"REV_AT_EPOCH":48778,"BSTAR":0.00030323338,"MEAN_MOTION_DOT":0.00009984,"MEAN_MOTION_DDOT":0},{"OBJECT_NAME":"SKYSAT-C12","OBJECT_ID":"2018-099AR","EPOCH":"2026-07-22T19:23:27.578112","CLASSIFICATION_TYPE":"U","MEAN_MOTION":15.49979178,"ECCENTRICITY":0.00046826,"INCLINATION":96.9255,"RA_OF_ASC_NODE":225.6366,"ARG_OF_PERICENTER":53.7803,"MEAN_ANOMALY":306.3882,"EPHEMERIS_TYPE":0,"NORAD_CAT_ID":43797,"ELEMENT_SET_NO":999,"REV_AT_EPOCH":42737,"BSTAR":0.00034484976,"MEAN_MOTION_DOT":0.00019251,"MEAN_MOTION_DDOT":0}]}
